GLOBALSTAR M001         
1 25162U 98008A   24130.59861936 -.00000037  00000+0  46013-3 0  9995
2 25162  52.0043  67.8718 0001744 104.1151  66.9423 12.38184317193829
GLOBALSTAR M004         
1 25163U 98008B   24130.76994258 -.00000001  00000+0  56638-3 0  9994
2 25163  51.9985 204.8481 0003370 118.1403  35.6171 12.63358626210697
GLOBALSTAR M014         
1 25306U 98023A   24130.71422588 -.00000089  00000+0 -21267-3 0  9994
2 25306  51.9817 103.5417 0001115 344.6538 186.6222 11.65467606144122
GLOBALSTAR M006         
1 25307U 98023B   24130.76243176 -.00000056  00000+0  40243-3 0  9992
2 25307  51.9902 140.8180 0003434 100.8991  69.8784 11.58163330170088
GLOBALSTAR M008         
1 25309U 98023D   24130.73132712 -.00000056  00000+0  31860-3 0  9999
2 25309  51.9970 287.7487 0002947  60.0504  45.3490 12.36043263187957
